ONEWEB-0674             
1 55833U 23029AP  25061.93537657 -.00000009  00000+0 -59384-4 0  9992
2 55833  87.9048  23.4286 0002001  98.6869 261.4488 13.14501227 97506
ONEWEB-0675             
1 55834U 23029AQ  25062.00587359 -.00000069  00000+0 -20525-3 0  9996
2 55834  87.9190  38.6393 0001870  73.2660 286.8678 13.19724059 97487
ONEWEB-0720             
1 55835U 23029AR  25061.99798553  .00000074  00000+0  15222-3 0  9996
2 55835  87.9189  38.6385 0002360  85.8125 274.3277 13.19725433 97380
ONEWEB-0537             
1 56046U 23043A   25061.78545796  .00000163  00000+0  39285-3 0  9997
2 56046  87.9107 322.7183 0001620  70.8152 289.3154 13.16594878 96934
ONEWEB-0538             
1 56047U 23043B   25062.15911035  .00000183  00000+0  44413-3 0  9994
2 56047  87.9106 322.6656 0001914  70.1109 290.0228 13.16594429 97900
ONEWEB-0546             
1 56048U 23043C   25061.76645639  .00000057  00000+0  11566-3 0  9998
2 56048  87.9110 322.7119 0001161  58.6613 301.4631 13.16594866 96938
ONEWEB-0547             
1 56049U 23043D   25061.81222284  .00000081  00000+0  16453-3 0  9999
2 56049  87.9348 337.9459 0001968  73.0448 287.0902 13.21824477 95950
ONEWEB-0548             
1 56050U 23043E   25062.17177185  .00000149  00000+0  35485-3 0  9991
2 56050  87.9108 322.6725 0001646  95.6929 264.4390 13.16595721 97896
