<?xml version="1.0" encoding="UTF-8"?>
<ndm xmlns:xsi="http://www.w3.org/2001/XMLSchema-instance" xsi:noNamespaceSchemaLocation="https://sanaregistry.org/r/ndmxml_unqualified/ndmxml-2.0.0-master-2.0.xsd">
<omm id="CCSDS_OMM_VERS" version="2.0">
<header><CREATION_DATE/><ORIGINATOR/></header><body><segment><metadata><OBJECT_NAME>ONEWEB-0674</OBJECT_NAME><OBJECT_ID>2023-029AP</OBJECT_ID><CENTER_NAME>EARTH</CENTER_NAME><REF_FRAME>TEME</REF_FRAME><TIME_SYSTEM>UTC</TIME_SYSTEM><MEAN_ELEMENT_THEORY>SGP4</MEAN_ELEMENT_THEORY></metadata><data><meanElements><EPOCH>2025-03-02T22:26:56.535648</EPOCH><MEAN_MOTION>13.14501227</MEAN_MOTION><ECCENTRICITY>.0002001</ECCENTRICITY><INCLINATION>87.9048</INCLINATION><RA_OF_ASC_NODE>23.4286</RA_OF_ASC_NODE><ARG_OF_PERICENTER>98.6869</ARG_OF_PERICENTER><MEAN_ANOMALY>261.4488</MEAN_ANOMALY></meanElements><tleParameters><EPHEMERIS_TYPE>0</EPHEMERIS_TYPE><CLASSIFICATION_TYPE>U</CLASSIFICATION_TYPE><NORAD_CAT_ID>55833</NORAD_CAT_ID><ELEMENT_SET_NO>999</ELEMENT_SET_NO><REV_AT_EPOCH>9750</REV_AT_EPOCH><BSTAR>-.59384E-4</BSTAR><MEAN_MOTION_DOT>-.9E-7</MEAN_MOTION_DOT><MEAN_MOTION_DDOT>0</MEAN_MOTION_DDOT></tleParameters></data></segment></body></omm>
<omm id="CCSDS_OMM_VERS" version="2.0">
<header><CREATION_DATE/><ORIGINATOR/></header><body><segment><metadata><OBJECT_NAME>ONEWEB-0675</OBJECT_NAME><OBJECT_ID>2023-029AQ</OBJECT_ID><CENTER_NAME>EARTH</CENTER_NAME><REF_FRAME>TEME</REF_FRAME><TIME_SYSTEM>UTC</TIME_SYSTEM><MEAN_ELEMENT_THEORY>SGP4</MEAN_ELEMENT_THEORY></metadata><data><meanElements><EPOCH>2025-03-03T00:08:27.478176</EPOCH><MEAN_MOTION>13.19724059</MEAN_MOTION><ECCENTRICITY>.000187</ECCENTRICITY><INCLINATION>87.9190</INCLINATION><RA_OF_ASC_NODE>38.6393</RA_OF_ASC_NODE><ARG_OF_PERICENTER>73.2660</ARG_OF_PERICENTER><MEAN_ANOMALY>286.8678</MEAN_ANOMALY></meanElements><tleParameters><EPHEMERIS_TYPE>0</EPHEMERIS_TYPE><CLASSIFICATION_TYPE>U</CLASSIFICATION_TYPE><NORAD_CAT_ID>55834</NORAD_CAT_ID><ELEMENT_SET_NO>999</ELEMENT_SET_NO><REV_AT_EPOCH>9748</REV_AT_EPOCH><BSTAR>-.20525E-3</BSTAR><MEAN_MOTION_DOT>-.69E-6</MEAN_MOTION_DOT><MEAN_MOTION_DDOT>0</MEAN_MOTION_DDOT></tleParameters></data></segment></body></omm>
<omm id="CCSDS_OMM_VERS" version="2.0">
<header><CREATION_DATE/><ORIGINATOR/></header><body><segment><metadata><OBJECT_NAME>ONEWEB-0720</OBJECT_NAME><OBJECT_ID>2023-029AR</OBJECT_ID><CENTER_NAME>EARTH</CENTER_NAME><REF_FRAME>TEME</REF_FRAME><TIME_SYSTEM>UTC</TIME_SYSTEM><MEAN_ELEMENT_THEORY>SGP4</MEAN_ELEMENT_THEORY></metadata><data><meanElements><EPOCH>2025-03-02T23:57:05.949792</EPOCH><MEAN_MOTION>13.19725433</MEAN_MOTION><ECCENTRICITY>.000236</ECCENTRICITY><INCLINATION>87.9189</INCLINATION><RA_OF_ASC_NODE>38.6385</RA_OF_ASC_NODE><ARG_OF_PERICENTER>85.8125</ARG_OF_PERICENTER><MEAN_ANOMALY>274.3277</MEAN_ANOMALY></meanElements><tleParameters><EPHEMERIS_TYPE>0</EPHEMERIS_TYPE><CLASSIFICATION_TYPE>U</CLASSIFICATION_TYPE><NORAD_CAT_ID>55835</NORAD_CAT_ID><ELEMENT_SET_NO>999</ELEMENT_SET_NO><REV_AT_EPOCH>9738</REV_AT_EPOCH><BSTAR>.15222E-3</BSTAR><MEAN_MOTION_DOT>.74E-6</MEAN_MOTION_DOT><MEAN_MOTION_DDOT>0</MEAN_MOTION_DDOT></tleParameters></data></segment></body></omm>
<omm id="CCSDS_OMM_VERS" version="2.0">
<header><CREATION_DATE/><ORIGINATOR/></header><body><segment><metadata><OBJECT_NAME>ONEWEB-0537</OBJECT_NAME><OBJECT_ID>2023-043A</OBJECT_ID><CENTER_NAME>EARTH</CENTER_NAME><REF_FRAME>TEME</REF_FRAME><TIME_SYSTEM>UTC</TIME_SYSTEM><MEAN_ELEMENT_THEORY>SGP4</MEAN_ELEMENT_THEORY></metadata><data><meanElements><EPOCH>2025-03-02T18:51:03.567744</EPOCH><MEAN_MOTION>13.16594878</MEAN_MOTION><ECCENTRICITY>.000162</ECCENTRICITY><INCLINATION>87.9107</INCLINATION><RA_OF_ASC_NODE>322.7183</RA_OF_ASC_NODE><ARG_OF_PERICENTER>70.8152</ARG_OF_PERICENTER><MEAN_ANOMALY>289.3154</MEAN_ANOMALY></meanElements><tleParameters><EPHEMERIS_TYPE>0</EPHEMERIS_TYPE><CLASSIFICATION_TYPE>U</CLASSIFICATION_TYPE><NORAD_CAT_ID>56046</NORAD_CAT_ID><ELEMENT_SET_NO>999</ELEMENT_SET_NO><REV_AT_EPOCH>9693</REV_AT_EPOCH><BSTAR>.39285E-3</BSTAR><MEAN_MOTION_DOT>.163E-5</MEAN_MOTION_DOT><MEAN_MOTION_DDOT>0</MEAN_MOTION_DDOT></tleParameters></data></segment></body></omm>
<omm id="CCSDS_OMM_VERS" version="2.0">
<header><CREATION_DATE/><ORIGINATOR/></header><body><segment><metadata><OBJECT_NAME>ONEWEB-0538</OBJECT_NAME><OBJECT_ID>2023-043B</OBJECT_ID><CENTER_NAME>EARTH</CENTER_NAME><REF_FRAME>TEME</REF_FRAME><TIME_SYSTEM>UTC</TIME_SYSTEM><MEAN_ELEMENT_THEORY>SGP4</MEAN_ELEMENT_THEORY></metadata><data><meanElements><EPOCH>2025-03-03T03:49:07.134240</EPOCH><MEAN_MOTION>13.16594429</MEAN_MOTION><ECCENTRICITY>.0001914</ECCENTRICITY><INCLINATION>87.9106</INCLINATION><RA_OF_ASC_NODE>322.6656</RA_OF_ASC_NODE><ARG_OF_PERICENTER>70.1109</ARG_OF_PERICENTER><MEAN_ANOMALY>290.0228</MEAN_ANOMALY></meanElements><tleParameters><EPHEMERIS_TYPE>0</EPHEMERIS_TYPE><CLASSIFICATION_TYPE>U</CLASSIFICATION_TYPE><NORAD_CAT_ID>56047</NORAD_CAT_ID><ELEMENT_SET_NO>999</ELEMENT_SET_NO><REV_AT_EPOCH>9790</REV_AT_EPOCH><BSTAR>.44413E-3</BSTAR><MEAN_MOTION_DOT>.183E-5</MEAN_MOTION_DOT><MEAN_MOTION_DDOT>0</MEAN_MOTION_DDOT></tleParameters></data></segment></body></omm>
<omm id="CCSDS_OMM_VERS" version="2.0">
<header><CREATION_DATE/><ORIGINATOR/></header><body><segment><metadata><OBJECT_NAME>ONEWEB-0546</OBJECT_NAME><OBJECT_ID>2023-043C</OBJECT_ID><CENTER_NAME>EARTH</CENTER_NAME><REF_FRAME>TEME</REF_FRAME><TIME_SYSTEM>UTC</TIME_SYSTEM><MEAN_ELEMENT_THEORY>SGP4</MEAN_ELEMENT_THEORY></metadata><data><meanElements><EPOCH>2025-03-02T18:23:41.832096</EPOCH><MEAN_MOTION>13.16594866</MEAN_MOTION><ECCENTRICITY>.0001161</ECCENTRICITY><INCLINATION>87.9110</INCLINATION><RA_OF_ASC_NODE>322.7119</RA_OF_ASC_NODE><ARG_OF_PERICENTER>58.6613</ARG_OF_PERICENTER><MEAN_ANOMALY>301.4631</MEAN_ANOMALY></meanElements><tleParameters><EPHEMERIS_TYPE>0</EPHEMERIS_TYPE><CLASSIFICATION_TYPE>U</CLASSIFICATION_TYPE><NORAD_CAT_ID>56048</NORAD_CAT_ID><ELEMENT_SET_NO>999</ELEMENT_SET_NO><REV_AT_EPOCH>9693</REV_AT_EPOCH><BSTAR>.11566E-3</BSTAR><MEAN_MOTION_DOT>.57E-6</MEAN_MOTION_DOT><MEAN_MOTION_DDOT>0</MEAN_MOTION_DDOT></tleParameters></data></segment></body></omm>
<omm id="CCSDS_OMM_VERS" version="2.0">
<header><CREATION_DATE/><ORIGINATOR/></header><body><segment><metadata><OBJECT_NAME>ONEWEB-0547</OBJECT_NAME><OBJECT_ID>2023-043D</OBJECT_ID><CENTER_NAME>EARTH</CENTER_NAME><REF_FRAME>TEME</REF_FRAME><TIME_SYSTEM>UTC</TIME_SYSTEM><MEAN_ELEMENT_THEORY>SGP4</MEAN_ELEMENT_THEORY></metadata><data><meanElements><EPOCH>2025-03-02T19:29:36.053376</EPOCH><MEAN_MOTION>13.21824477</MEAN_MOTION><ECCENTRICITY>.0001968</ECCENTRICITY><INCLINATION>87.9348</INCLINATION><RA_OF_ASC_NODE>337.9459</RA_OF_ASC_NODE><ARG_OF_PERICENTER>73.0448</ARG_OF_PERICENTER><MEAN_ANOMALY>287.0902</MEAN_ANOMALY></meanElements><tleParameters><EPHEMERIS_TYPE>0</EPHEMERIS_TYPE><CLASSIFICATION_TYPE>U</CLASSIFICATION_TYPE><NORAD_CAT_ID>56049</NORAD_CAT_ID><ELEMENT_SET_NO>999</ELEMENT_SET_NO><REV_AT_EPOCH>9595</REV_AT_EPOCH><BSTAR>.16453E-3</BSTAR><MEAN_MOTION_DOT>.81E-6</MEAN_MOTION_DOT><MEAN_MOTION_DDOT>0</MEAN_MOTION_DDOT></tleParameters></data></segment></body></omm>
<omm id="CCSDS_OMM_VERS" version="2.0">
<header><CREATION_DATE/><ORIGINATOR/></header><body><segment><metadata><OBJECT_NAME>ONEWEB-0548</OBJECT_NAME><OBJECT_ID>2023-043E</OBJECT_ID><CENTER_NAME>EARTH</CENTER_NAME><REF_FRAME>TEME</REF_FRAME><TIME_SYSTEM>UTC</TIME_SYSTEM><MEAN_ELEMENT_THEORY>SGP4</MEAN_ELEMENT_THEORY></metadata><data><meanElements><EPOCH>2025-03-03T04:07:21.087840</EPOCH><MEAN_MOTION>13.16595721</MEAN_MOTION><ECCENTRICITY>.0001646</ECCENTRICITY><INCLINATION>87.9108</INCLINATION><RA_OF_ASC_NODE>322.6725</RA_OF_ASC_NODE><ARG_OF_PERICENTER>95.6929</ARG_OF_PERICENTER><MEAN_ANOMALY>264.4390</MEAN_ANOMALY></meanElements><tleParameters><EPHEMERIS_TYPE>0</EPHEMERIS_TYPE><CLASSIFICATION_TYPE>U</CLASSIFICATION_TYPE><NORAD_CAT_ID>56050</NORAD_CAT_ID><ELEMENT_SET_NO>999</ELEMENT_SET_NO><REV_AT_EPOCH>9789</REV_AT_EPOCH><BSTAR>.35485E-3</BSTAR><MEAN_MOTION_DOT>.149E-5</MEAN_MOTION_DOT><MEAN_MOTION_DDOT>0</MEAN_MOTION_DDOT></tleParameters></data></segment></body></omm>

</ndm>
